METEOSAT-5 (MOP-2)      
1 21140U 91015B   11145.55899835 -.00000179  00000-0  10000-3 0  6616
2 21140  12.3801  41.4689 0002618  99.2945 260.6648  0.98452450 76048
METEOSAT-6 (MOP-3)      
1 22912U 93073B   11147.85687289  .00000035  00000-0  00000+0 0  1365
2 22912   9.9451  51.4085 0004522  26.2334 333.6704  0.98983336 62588
HIMAWARI-5 (GMS-5)      
1 23522U 95011B   11146.67104886 -.00000167  00000-0  10000-3 0  5752
2 23522   9.1485  54.4986 0011360 353.0412   6.8233  0.99404191 58987
GOES 10                 
1 24786U 97019A   11146.15750901 -.00000238  00000-0  10000-3 0  9060
2 24786   5.2307  64.8264 0009266  16.3721 343.4619  0.99072504 51540
ORBVIEW 2 (SEASTAR)     
1 24883U 97037A   11146.94501757  .00000042  00000-0  31333-4 0  4394
2 24883  98.3752 272.6175 0002480 160.9176 199.2106 14.32256560734966
METEOSAT-7              
1 24932U 97049B   11147.66173086  .00000066  00000-0  00000+0 0  5997
2 24932   6.8650  60.9464 0001815  40.1652  79.5854  1.00278933 50308
NOAA 15                 
1 25338U 98030A   11147.31002986 -.00000043  00000-0  29127-6 0  8280
2 25338  98.6527 133.7403 0011127 148.4877 211.6964 14.24915662677753
GOES 11                 
1 26352U 00022A   11147.26321532  .00000094  00000-0  10000-3 0  3463
2 26352   0.3382  81.2216 0002390  18.6451 103.9944  1.00268296 40519
FENGYUN 2B              
1 26382U 00032A   11146.43403777  .00000116  00000-0  10000-3 0  3945
2 26382   6.0229  63.7399 0002306 270.9067  88.8958  1.00090715 39956
NOAA 16                 
1 26536U 00055A   11147.32393577 -.00000085  00000-0 -21076-4 0  3107
2 26536  99.1403 177.4412 0011490  91.6162 268.6307 14.12619478550416
GOES 12                 
1 26871U 01031A   11148.15927302 -.00000277  00000-0  10000-3 0  1154
2 26871   1.3799  77.3866 0004506  10.9278 155.0432  1.00270810 36125
FENGYUN 1D              
1 27431U 02024B   11148.04580719  .00000024  00000-0  37968-4 0   965
2 27431  98.7106 121.1771 0014755 200.2102 159.8489 14.09313055464794
NOAA 17                 
1 27453U 02032A   11147.31165925  .00000001  00000-0  18473-4 0  3020
2 27453  98.3797 187.9784 0011186 206.3811 153.6813 14.24274433463686
METEOSAT-8 (MSG-1)      
1 27509U 02040B   11147.04099227  .00000065  00000-0  10000-3 0  7168
2 27509   0.5776  39.2398 0000592  16.1816 212.8136  1.00270336 32104
KALPANA-1 (METSAT 1)    
1 27525U 02043A   11146.90682308 -.00000074  00000-0  10000-3 0  2617
2 27525   1.9835  74.5062 0003994 244.6548 325.3803  1.00272146 31901
INSAT-3A                
1 27714U 03013A   11147.68526089 -.00000252  00000-0  10000-3 0  6100
2 27714   0.0463 101.2686 0002563 297.6515 186.1596  1.00271498 29819
FENGYUN 2C              
1 28451U 04042A   11146.91184965 -.00000354  00000-0  10000-3 0  1489
2 28451   3.1061  70.2169 0001392 229.9358  35.4079  1.00284493 24152
HIMAWARI 6 (MTSAT-1R)   
1 28622U 05006A   11147.83032958 -.00000274  00000-0  10000-3 0  4929
2 28622   0.0454  88.6074 0001080 140.0624  95.3438  1.00271481 22868
NOAA 18                 
1 28654U 05018A   11147.33017009  .00000147  00000-0  10573-3 0  7827
2 28654  98.9941  98.4278 0014483 160.2445 199.9288 14.11477664309983
METEOSAT-9 (MSG-2)      
1 28912U 05049B   11148.01897550  .00000002  00000-0  10000-3 0  8962
2 28912   0.3914  37.4982 0000958 126.3110  88.0231  1.00277277 19960
MTSAT-2                 
1 28937U 06004A   11146.75418472 -.00000240  00000-0  10000-3 0  9520
2 28937   0.0757 100.3141 0003003 304.8938 255.2919  1.00272868 19334
FORMOSAT 3A             
1 29047U 06011A   11147.14963422  .00000309  00000-0  14113-3 0  5143
2 29047  71.9806  18.1548 0051468   3.5843 356.5672 14.27222126268873
FORMOSAT 3B             
1 29048U 06011B   11147.93824188  .00000390  00000-0  17471-3 0  5922
2 29048  71.9694 291.1587 0045759 313.8368  45.8974 14.27242409271468
FORMOSAT 3C             
1 29049U 06011C   11147.10881371  .00000362  00000-0  16364-3 0  5401
2 29049  72.0207  85.8887 0035104  10.5753 349.6094 14.27258837267122
FORMOSAT 3D             
1 29050U 06011D   11147.42550826  .00001114  00000-0  26646-3 0  8544
2 29050  72.0171 198.5319 0055299 206.3279 153.5030 14.54612757274340
FORMOSAT 3E             
1 29051U 06011E   11147.98377026  .00000373  00000-0  16522-3 0  5944
2 29051  72.0081 351.9096 0070326 241.4043 117.9997 14.27255277269839
FORMOSAT 3F             
1 29052U 06011F   11148.02527521  .00000361  00000-0  16273-3 0  6174
2 29052  72.0372  56.1531 0041209 337.9232  22.0119 14.27286131268148
GOES 13                 
1 29155U 06018A   11147.45938163 -.00000246  00000-0  10000-3 0  6129
2 29155   0.1745 265.7007 0006678 162.9099 266.7530  1.00274134 18360
METOP-A                 
1 29499U 06044A   11148.18652282  .00000138  00000-0  82968-4 0  4316
2 29499  98.6891 207.5767 0002077  94.7079 265.4347 14.21501639238884
FENGYUN 2D              
1 29640U 06053A   11147.90932127 -.00000191  00000-0  10000-3 0  1899
2 29640   1.4775  80.9761 0002314   2.9562 215.1505  1.00267685 16418
FENGYUN 3A              
1 32958U 08026A   11148.22481283  .00000168  00000-0  10000-3 0  8211
2 32958  98.6878 219.7750 0000387  79.2096 280.9105 14.19655261155520
NOAA 19                 
1 33591U 09005A   11147.32279065  .00000339  00000-0  21196-3 0  9732
2 33591  98.8245  87.8275 0014797  38.2046 322.0182 14.11169227118447
GOES 14                 
1 35491U 09033A   11148.23154291 -.00000083  00000-0  10000-3 0  9962
2 35491   0.1055  88.7340 0006319 322.5771 172.6851  1.00270563  7046
METEOR-M 1              
1 35865U 09049A   11148.16589535  .00000176  00000-0  10000-3 0  4056
2 35865  98.7073 203.5521 0003379  85.4885 274.6648 14.21838832 87744
GOES 15                 
1 36411U 10008A   11148.12776833 -.00000174  00000-0  10000-3 0  6079
2 36411   0.2187  93.8915 0003035  11.3764  96.5001  1.00262083  4549
COMS 1                  
1 36744U 10032A   11146.87946265 -.00000342  00000-0  10000-3 0  1671
2 36744   0.0266  37.0741 0001213  14.4056 277.4144  1.00270880  3490
FENGYUN 3B              
1 37214U 10059A   11148.19080802  .00000042  00000-0  40594-4 0  6051
2 37214  98.7191  90.0402 0002164  75.9839 284.1583 14.19679137 29014
ELEKTRO-L1              
1 37344U 11001A   11147.82234676 -.00000091  00000-0  10000-3 0   813
2 37344   0.2167 308.1915 0003244 166.6315 142.2226  1.00271249  1339
